ONEWEB-0171             
1 48070U 21025AE  24230.55988143 -.00000150  00000+0 -44677-3 0  9991
2 48070  87.8881  93.3183 0001614  83.5331 276.5982 13.13471090165845
ONEWEB-0172             
1 48071U 21025AF  24230.15837062  .00000382  00000+0  10115-2 0  9995
2 48071  87.8880  93.3652 0001606  85.2573 274.8739 13.13470922166681
ONEWEB-0174             
1 48072U 21025AG  24230.14091557  .00000294  00000+0  77059-3 0  9999
2 48072  87.8880  93.3830 0001881  79.9647 280.1695 13.13471538166008
ONEWEB-0175             
1 48073U 21025AH  24230.55036765  .00000111  00000+0  27031-3 0  9998
2 48073  87.8873  93.2860 0001351  82.0055 278.1227 13.13469873165717
ONEWEB-0177             
1 48074U 21025AJ  24230.18217910 -.00000211  00000+0 -61261-3 0  9997
2 48074  87.8878  93.3680 0001968  91.1703 268.9652 13.13469100165856
ONEWEB-0178             
1 48075U 21025AK  24230.58066361 -.00000225  00000+0 -65024-3 0  9990
2 48075  87.8882  93.3108 0001843  85.9181 274.2158 13.13469788165954
ONEWEB-0108             
1 48076U 21025AL  24230.15995821  .00000329  00000+0  86706-3 0  9999
2 48076  87.8875  93.3700 0001872  74.2558 285.8778 13.13470417165829
ONEWEB-0169             
1 48077U 21025AM  24230.11551773 -.00000214  00000+0 -62200-3 0  9998
2 48077  87.8878  93.3901 0001931  75.0448 285.0895 13.13470146164470
